{
  "type": "FeatureCollection",
  "features": [
    {
      "type": "Feature",
      "properties": {
        "norad_id": 44333,
        "name": "AT&T T-16",
        "group": "intelsat",
        "lat": -0.026108736392094295,
        "lon": -90.09318754350588,
        "alt_km": 35787.49962828637,
        "timestamp": "2025-12-08T19:31:48.495793+00:00",
        "meta_object_name": "AT&T T-16",
        "meta_object_id": "2019-034A",
        "meta_epoch": "2025-12-08T06:00:20.102688",
        "meta_mean_motion": 1.00269203,
        "meta_eccentricity": 5.34e-05,
        "meta_inclination": 0.0242,
        "meta_ra_of_asc_node": 60.8928,
        "meta_arg_of_pericenter": 101.4278,
        "meta_mean_anomaly": 264.1661,
        "meta_ephemeris_type": 0,
        "meta_classification_type": "U",
        "meta_norad_cat_id": 44333,
        "meta_element_set_no": 999,
        "meta_rev_at_epoch": 2371,
        "meta_bstar": 0,
        "meta_mean_motion_dot": -1.12e-06,
        "meta_mean_motion_ddot": 0,
        "tle_line1": "1 44333U 19034A   25342.25023267 -.00000112  00000+0  00000+0 0  9990",
        "tle_line2": "2 44333   0.0242  60.8928 0000534 101.4278 264.1661  1.00269203 23717"
      },
      "geometry": {
        "type": "Point",
        "coordinates": [
          -90.09318754350588,
          -0.026108736392094295
        ]
      }
    },
    {
      "type": "Feature",
      "properties": {
        "norad_id": 44476,
        "name": "INTELSAT 39 (IS-39)",
        "group": "intelsat",
        "lat": 0.036871947471283244,
        "lon": 72.69801873823158,
        "alt_km": 35785.94040430622,
        "timestamp": "2025-12-08T19:31:48.495803+00:00",
        "meta_object_name": "INTELSAT 39 (IS-39)",
        "meta_object_id": "2019-049B",
        "meta_epoch": "2025-12-08T05:20:15.073152",
        "meta_mean_motion": 1.00270225,
        "meta_eccentricity": 8.498e-05,
        "meta_inclination": 0.0172,
        "meta_ra_of_asc_node": 325.2678,
        "meta_arg_of_pericenter": 188.8959,
        "meta_mean_anomaly": 65.0792,
        "meta_ephemeris_type": 0,
        "meta_classification_type": "U",
        "meta_norad_cat_id": 44476,
        "meta_element_set_no": 999,
        "meta_rev_at_epoch": 2321,
        "meta_bstar": 0,
        "meta_mean_motion_dot": 3.6e-07,
        "meta_mean_motion_ddot": 0,
        "tle_line1": "1 44476U 19049B   25342.22239668  .00000036  00000+0  00000+0 0  9999",
        "tle_line2": "2 44476   0.0172 325.2678 0000849 188.8959  65.0792  1.00270225 23215"
      },
      "geometry": {
        "type": "Point",
        "coordinates": [
          72.69801873823158,
          0.036871947471283244
        ]
      }
    },
    {
      "type": "Feature",
      "properties": {
        "norad_id": 46114,
        "name": "GALAXY 30 (G-30)",
        "group": "intelsat",
        "lat": -0.037740005188841,
        "lon": -114.24761057796582,
        "alt_km": 35776.11759824312,
        "timestamp": "2025-12-08T19:31:48.495813+00:00",
        "meta_object_name": "GALAXY 30 (G-30)",
        "meta_object_id": "2020-056C",
        "meta_epoch": "2025-12-08T05:46:43.301280",
        "meta_mean_motion": 1.00270993,
        "meta_eccentricity": 0.0002437,
        "meta_inclination": 0.017,
        "meta_ra_of_asc_node": 351.6835,
        "meta_arg_of_pericenter": 264.3869,
        "meta_mean_anomaly": 142.8564,
        "meta_ephemeris_type": 0,
        "meta_classification_type": "U",
        "meta_norad_cat_id": 46114,
        "meta_element_set_no": 999,
        "meta_rev_at_epoch": 1937,
        "meta_bstar": 0,
        "meta_mean_motion_dot": 3.9e-07,
        "meta_mean_motion_ddot": 0,
        "tle_line1": "1 46114U 20056C   25342.24077895  .00000039  00000+0  00000+0 0  9997",
        "tle_line2": "2 46114   0.0170 351.6835 0002437 264.3869 142.8564  1.00270993 19372"
      },
      "geometry": {
        "type": "Point",
        "coordinates": [
          -114.24761057796582,
          -0.037740005188841
        ]
      }
    },
    {
      "type": "Feature",
      "properties": {
        "norad_id": 54026,
        "name": "GALAXY 33 (G-33)",
        "group": "intelsat",
        "lat": -0.03178043540600813,
        "lon": -122.24199019428043,
        "alt_km": 35776.65715559794,
        "timestamp": "2025-12-08T19:31:48.495823+00:00",
        "meta_object_name": "GALAXY 33 (G-33)",
        "meta_object_id": "2022-128A",
        "meta_epoch": "2025-12-08T05:42:50.193216",
        "meta_mean_motion": 1.00271663,
        "meta_eccentricity": 0.00022726,
        "meta_inclination": 0.0169,
        "meta_ra_of_asc_node": 300.5528,
        "meta_arg_of_pericenter": 309.077,
        "meta_mean_anomaly": 140.3276,
        "meta_ephemeris_type": 0,
        "meta_classification_type": "U",
        "meta_norad_cat_id": 54026,
        "meta_element_set_no": 999,
        "meta_rev_at_epoch": 1182,
        "meta_bstar": 0,
        "meta_mean_motion_dot": 8.2e-07,
        "meta_mean_motion_ddot": 0,
        "tle_line1": "1 54026U 22128A   25342.23808094  .00000082  00000+0  00000+0 0  9990",
        "tle_line2": "2 54026   0.0169 300.5528 0002272 309.0770 140.3276  1.00271663 11828"
      },
      "geometry": {
        "type": "Point",
        "coordinates": [
          -122.24199019428043,
          -0.03178043540600813
        ]
      }
    },
    {
      "type": "Feature",
      "properties": {
        "norad_id": 54027,
        "name": "GALAXY 34 (G-34)",
        "group": "intelsat",
        "lat": -0.046089643366751996,
        "lon": -118.17526158530086,
        "alt_km": 35780.75351037524,
        "timestamp": "2025-12-08T19:31:48.495833+00:00",
        "meta_object_name": "GALAXY 34 (G-34)",
        "meta_object_id": "2022-128B",
        "meta_epoch": "2025-12-08T05:44:47.318784",
        "meta_mean_motion": 1.00270169,
        "meta_eccentricity": 0.00013611,
        "meta_inclination": 0.0273,
        "meta_ra_of_asc_node": 316.9402,
        "meta_arg_of_pericenter": 289.4406,
        "meta_mean_anomaly": 148.1317,
        "meta_ephemeris_type": 0,
        "meta_classification_type": "U",
        "meta_norad_cat_id": 54027,
        "meta_element_set_no": 999,
        "meta_rev_at_epoch": 1199,
        "meta_bstar": 0,
        "meta_mean_motion_dot": 0,
        "meta_mean_motion_ddot": 0,
        "tle_line1": "1 54027U 22128B   25342.23943656  .00000000  00000+0  00000+0 0  9995",
        "tle_line2": "2 54027   0.0273 316.9402 0001361 289.4406 148.1317  1.00270169 11992"
      },
      "geometry": {
        "type": "Point",
        "coordinates": [
          -118.17526158530086,
          -0.046089643366751996
        ]
      }
    },
    {
      "type": "Feature",
      "properties": {
        "norad_id": 54243,
        "name": "GALAXY 31 (G-31)",
        "group": "intelsat",
        "lat": -0.017488149655747454,
        "lon": -110.23531553542601,
        "alt_km": 35777.56527492243,
        "timestamp": "2025-12-08T19:31:48.495844+00:00",
        "meta_object_name": "GALAXY 31 (G-31)",
        "meta_object_id": "2022-153A",
        "meta_epoch": "2025-12-08T05:49:39.710208",
        "meta_mean_motion": 1.00273838,
        "meta_eccentricity": 0.00019373,
        "meta_inclination": 0.0222,
        "meta_ra_of_asc_node": 258.0312,
        "meta_arg_of_pericenter": 7.0498,
        "meta_mean_anomaly": 138.5901,
        "meta_ephemeris_type": 0,
        "meta_classification_type": "U",
        "meta_norad_cat_id": 54243,
        "meta_element_set_no": 999,
        "meta_rev_at_epoch": 521,
        "meta_bstar": 0,
        "meta_mean_motion_dot": 1.5e-07,
        "meta_mean_motion_ddot": 0,
        "tle_line1": "1 54243U 22153A   25342.24282072  .00000015  00000+0  00000+0 0  9998",
        "tle_line2": "2 54243   0.0222 258.0312 0001937   7.0498 138.5901  1.00273838  5212"
      },
      "geometry": {
        "type": "Point",
        "coordinates": [
          -110.23531553542601,
          -0.017488149655747454
        ]
      }
    },
    {
      "type": "Feature",
      "properties": {
        "norad_id": 54244,
        "name": "GALAXY 32 (G-32)",
        "group": "intelsat",
        "lat": -0.026694808101733858,
        "lon": -80.25371767165723,
        "alt_km": 35776.27469711638,
        "timestamp": "2025-12-08T19:31:48.495854+00:00",
        "meta_object_name": "GALAXY 32 (G-32)",
        "meta_object_id": "2022-153B",
        "meta_epoch": "2025-12-08T06:05:59.661600",
        "meta_mean_motion": 1.00270611,
        "meta_eccentricity": 0.00027185,
        "meta_inclination": 0.0093,
        "meta_ra_of_asc_node": 337.982,
        "meta_arg_of_pericenter": 329.4117,
        "meta_mean_anomaly": 130.3686,
        "meta_ephemeris_type": 0,
        "meta_classification_type": "U",
        "meta_norad_cat_id": 54244,
        "meta_element_set_no": 999,
        "meta_rev_at_epoch": 1122,
        "meta_bstar": 0,
        "meta_mean_motion_dot": -1.72e-06,
        "meta_mean_motion_ddot": 0,
        "tle_line1": "1 54244U 22153B   25342.25416275 -.00000172  00000+0  00000+0 0  9999",
        "tle_line2": "2 54244   0.0093 337.9820 0002718 329.4117 130.3686  1.00270611 11221"
      },
      "geometry": {
        "type": "Point",
        "coordinates": [
          -80.25371767165723,
          -0.026694808101733858
        ]
      }
    }
  ]
}